Business Name,Email Address,Phone,Address
Florida Window & Door Solutions,rod@floridawds.com,321-472-4318,"500 Plumosa Ave, Altamonte Springs, FL 32701"
WM - Rolling Meadows Landfill and Recycling Center,wmcares@wm.com,8669094458,"7351 NW Highway 75, Topeka, KS 66618"
BellGear (Pty) Ltd,bellgearza@gmail.com,0872654039,"18 Constantia Road, Freeway Park, Boksburg, GP 1459"
Armored Inc. Burlington,info@armoredinc.ca,905-333-0006,"4129 Harvester Rd Unit L, Burlington, ON L7L 5M3"
WM - Miami County Transfer Station,wmcares@wm.com,(913) 764-1608,"23765 W 327th St, Paola, KS 66071"
Custom Boxes Lab,customboxeslab@gmail.com,1302778945,"300 Delaware Ave, Ste 210 #564, Wilmington, DE 19801"
Billing Care solution,sbillingcare@gmail.com,3022440434,"30 N Gould, st, ste R Sheridan, WY 82801, Sheridan, WY, US, wy 82801"
Drive Well Driving School,info@drivewelldrivingschool.com,703-817-5047,"44297 Pawnee Terrace, Ashburn, VA 20147"
The Ultimate Home buyers Course,theultimatehomebuyerscourse@techdotdigitals.net,(573) 262-8655,"2615 Wedgewood Dr, Jackson, Mi 63755"
Clear Choice Windows & Doors,jonathan@clearchoiceconstruction.com,971-224-6797,"7244 SW Durham Rd Suite 900, Tigard, OR 97224"
Clear Choice Windows & Doors,jonathan@clearchoiceconstruction.com,971-224-6797,"7244 SW Durham Rd Suite 900, US, Tigard, Or 97224"
Clear Choice Windows & Doors,jonathan@clearchoiceconstruction.com,971-224-6797,"7244 SW Durham Rd Suite 900, US, Tigard, Or 97224"
Clear Choice Windows & Doors,jonathan@clearchoiceconstruction.com,971-224-6797,"7244 SW Durham Rd Suite 900, US, Tigard, Or 97224"
Real Estate Agent Lists,matt@realestateagent-list.com,937-365-9100,"1453 Michael Dr, Troy, OH 45373"
ComTech,,919-647-7677,"4801 Glenwood Avenue Ste 200, Raleigh, NC 27612"
brisbane automotive service,info@brisbaneautomotive.com.au,N/A,"1/19 Kitchener Rd, Kedron,  Q  4031"
Moving Company Palmdale,,(661) 380-7778,", Palmdale, CA 93552"
Shift Automotive Melbourne,shiftautomotivemelbourne01@gmail.com,N/A,"610-612 High St, Thornbury VIC 3071, Australia, Thornbury ,  3071"
Occasio By Singh Events,info@occasiobysinghevents.com.au,N/A,"139 O’Herns Road , Epping, VIC, Australia, Victo 139 O’Herns Road , Epping, VIC, Australia, Victo, Epping, VI 3076"
Batteries Plus Franchise,,(972) 716-4144,"4151 Belt Line Rd Ste #102, Addison, TX 75001"
Texas Sons Roofing,aaron@texassonsroofing.com,817-775-5685,"332 Baker Dr, Hurst, TX 76054"
WeCare Senior Placements,senior.advisor@wecareseniorplacements.com,8003171421,"682 Legacy Ln, Upland, CA 91784"
"WM - L&K Services Louisburg, KS Hauling",wmcares@wm.com,8007969696,"26875 Metcalf Road, Louisburg, KS 66053"
WM - Junction City Hauling,wmcares@wm.com,8007969696,"2300 Elmdale Ave, Junction City, KS 66441"
Timeout Retreats,timeoutretreats@techdotdigitals.net,410-241-7325,"801 East Lumsden Rd, Brandon , Fl 33511"
Wilder Tree Company,wildertreecomp@outlook.com,(512) 885-8733,", Austin, TX 78741"
webuycentraltexas,webuyCentral@outlook.com,2544525421,"810 N W S Young Dr, Suite 105, Killeen, TX 76543"
DigaCore Technology Consulting,inaayaquinn@gmail.com,(732) 646-5725,"160 Airport Rd, Lakewood, NJ 08701, Lakewood, NJ 08701"
DigaCore Technology Consulting,inaayaquinn@gmail.com,(732) 646-5725,"160 Airport Rd, Lakewood, NJ 08701, Lakewood, NJ 08701"
N.V. Roofing Services,roman.nvroofing@gmail.com,(646) 717-3737,"163 Bay 7th St #1F, Brooklyn, NY 11228"
La Familia Restaurant,,508-823-8664,"431 Winthrop St, Taunton, MA 02780"
San Francisco Therapy and Integration,,415-663-5950,"2182 Greenwich Street, San Francisco, CA 94123"
Neo Movers,support@neomovers.com,4247443110,"2450 Colorado Ave Ste 209, Santa Monica, CA 90404"
Picture Quotient,info@picturequotient.com,9008504821,"No 5, 3rd Floor,1st Cross, Krishna Reddy Colony,D, bangalore, ka 560071"
CienOne,info@cienone.com,(979) 243-6663,"4500 Mercantile Plaza, Fort Worth, Te 76137"
Gatekeeper Self Storage,showings@gatekeeperproperties.com,(770) 631-4334,"354 Senoia Rd, Tyrone, GA 30290"
Douglas Electrical Components,douglaselectricalmarketing@gma,0973627823,"5 Middlebury Blvd. Randolph, NJ, Randolph, NJ, USA, NJ 07869"
Shiny Bright Windows,shinybrightwindows2021@gmail.com,085 7561020,"73 Eugene St, Dublin 8, Db D08 A2HD"
Super Eagle Roofing,ge.construction.ia@gmail.com,515-708-4027,"1820 S Dayton Pl, Ames, IA 50010"
Apna Research Plus,apnaresearchplus@gmail.com,2210010620,"Hanumanpura, Bhadaini, Ward-Bhelupur, Delhi,  221001"
Best Skin Care Products,grantdavis611@gmail.com,0866246660,"Sree Chakra Towers, Bandar Rd, JD Nagar, Patamata,, Vijayawada, AP 520010"
Rupee Run,rupeerun@firstdemat.com,5600070790,"47, 2nd Floor, Bannerghatta Rd, Doresanipalya, Anthappa Layout, Phase 4, Bilekahalli Bengaluru, Bengaluru,  560007"
Cholula Mexican Restaurant 4,,317-421-0972,"1642 E IN-44, Shelbyville, IN 46176"
Magnipower Technology LLP,support@mpowerlithium.com,7305989715,"Magnipower Technology LLP, Plot No. 4&5 Sivapadam, Chennai, TN 600095"
Master Cuts Barber Shop,,301-638-5866,"3330 Crain Hwy, Waldorf, MD 20603"
Forest Hill Cosmetic Clinic,contact@foresthillcc.com,4165959788,"446 Spadina Rd, Toronto, On M5P 2W4"
Advance Physical & Aquatic Therapy,jianna771@gmail.com,610-894-7347,"965 Baltimore Pike Springfield, PA 19064 965 Baltimore Pike Springfield, PA 19064, Springfield, PA 19064"
Colorado Industrial Packaging,N/A,720-339-2706,"14501 E 35th Pl Unit 300, Aurora, CO 80011"
Nail Bar,,843-559-3700,"3575 Maybank Hwy, #T, Johns Island, SC 29455"
Biz4Group LLC,poojabiz4group@gmail.com,1407714161,"7380 W Sand Lake Rd #500, Orlando, FL 32819"
NutcrackerSweet,gifts@nutcrackersweet.com,416-782-3232,"3717 Chesswood Drive, North York, ON, M3J 2P6 n, Toronto, n n"
NutcrackerSweet,gifts@nutcrackersweet.com,416-782-3232,"3717 Chesswood Drive, North York, ON, M3J 2P6, Toronto,"
,,N/A,", ,"
